[{"OBJECT_NAME":"SPACEMOBILE-001","OBJECT_ID":"2024-163C","EPOCH":"2026-03-09T21:48:30.828096","MEAN_MOTION":15.2107526,"ECCENTRICITY":0.00085319,"INCLINATION":52.9724,"RA_OF_ASC_NODE":45.7553,"ARG_OF_PERICENTER":183.2092,"MEAN_ANOMALY":176.8849,"EPHEMERIS_TYPE":0,"CLASSIFICATION_TYPE":"U","NORAD_CAT_ID":61047,"ELEMENT_SET_NO":999,"REV_AT_EPOCH":8265,"BSTAR":0.00077800145,"MEAN_MOTION_DOT":0.00017238,"MEAN_MOTION_DDOT":0},{"OBJECT_NAME":"TOMORROW-S9","OBJECT_ID":"2025-248S","EPOCH":"2026-03-09T00:52:57.672768","MEAN_MOTION":15.1924557,"ECCENTRICITY":0.00037045,"INCLINATION":45.4048,"RA_OF_ASC_NODE":298.2875,"ARG_OF_PERICENTER":215.4557,"MEAN_ANOMALY":144.6083,"EPHEMERIS_TYPE":0,"CLASSIFICATION_TYPE":"U","NORAD_CAT_ID":66309,"ELEMENT_SET_NO":999,"REV_AT_EPOCH":1927,"BSTAR":0.00031245466,"MEAN_MOTION_DOT":6.428e-5,"MEAN_MOTION_DDOT":0}]
